RISAT-2BR2              
1 46905U 20081A   26068.52426450  .00004901  00000+0  37609-3 0  9996
2 46905  36.8980  95.9121 0010905  52.9142 307.2595 15.01602463292489
STARLINK-34690          
1 64863U 25152X   26068.57352958  .00003244  00000+0  22893-3 0  9997
2 64863  97.6023 285.4597 0002429  72.7737 287.3755 15.05650910 35407
